{
  "norad_id": 43564,
  "name": "GSAT0221 (GALILEO 25)",
  "history": [
    {
      "epoch": "2026-03-27T12:42:48.068064Z",
      "apogee_km": 23236.211586647816,
      "perigee_km": 23207.80610268944,
      "latitude_deg": 3.11008452779037e-05,
      "longitude_deg": -31.665190421848013,
      "height_km": 23212.424661138095,
      "semi_major_axis_km": 29600.145844668627,
      "eccentricity": 0.00047982,
      "inclination_deg": 57.1946,
      "raan_deg": 343.9877,
      "arg_perigee_deg": 314.1453,
      "mean_anomaly_deg": 45.8491,
      "mean_motion_rev_day": 1.70475505
    }
  ]
}